NORAD_CAT_ID,TLE_LINE0,TLE_LINE1,TLE_LINE2,CREATION_DATE,OBJECT_NAME,OBJECT_ID,EPOCH,MEAN_MOTION,ECCENTRICITY,INCLINATION,RA_OF_ASC_NODE,ARG_OF_PERICENTER,MEAN_ANOMALY,REV_AT_EPOCH,BSTAR,MEAN_MOTION_DOT,MEAN_MOTION_DDOT,SEMIMAJOR_AXIS,PERIOD,APOAPSIS,PERIAPSIS,OBJECT_TYPE,COUNTRY_CODE,LAUNCH_DATE,SITE,DECAY_DATE,LAUNCH_YEAR,LAUNCH_SEQ,EPOCH_FINAL,ORBIT_CLASS,EVENT,DURATION,RCS_SIZE
206,0 RANGER 2,1 00206U 61032  A 61323.30092509  .07604724 +00000-0 +00000-0 0  9993,2 00206 033.3419 328.8753 0015267 059.4155 300.6610 16.42425948000167,15/08/2004 23:35,RANGER 2,1961-032A,19/11/1961 07:13,16.42425948,0.0015267,33.3419,328.8753,59.4155,300.661,16,0.0,0.07604724,0.0,6537.498,87.675,169.344,149.382,PAYLOAD,US,04/07/1961,AFWTR,20/11/1961,1961,32,19/11/1961 14:26,LEO,1,139,MEDIUM
207,0 DISCOVERER 35 DEB,1 00207U 61030  B 61321.75032380  .05152414 +00000-0 +00000-0 0  9992,2 00207 081.5337 079.2353 0200471 111.0641 250.0305 15.86061565000306,15/08/2004 23:35,DISCOVERER 35 DEB,1961-030B,17/11/1961 18:00,15.86061565,0.0200471,81.5337,79.2353,111.0641,250.0305,30,0.0,0.05152414,0.0,6691.478,90.79,447.488,179.198,DEBRIS,DEN,02/07/1961,AFWTR,23/11/1961,1961,30,18/11/1961 12:00,LEO,1,144,SMALL
209,0 ATLAS D 5 R/B,1 00209U 61033  B 61333.86587180  .44467461 +00000-0 +00000-0 0  9999,2 00209 032.5771 156.1258 0026253 126.6753 233.4475 16.46736067000042,15/08/2004 23:35,ATLAS D 5 R/B,1961-033B,29/11/1961 20:46,16.46736067,0.0026253,32.5771,156.1258,126.6753,233.4475,4,0.0,0.44467461,0.0,6526.085,87.445,165.083,130.817,ROCKET BODY,US,06/07/1961,AFETR,30/11/1961,1961,33,30/11/1961 17:33,LEO,1,147,LARGE
210,0 THOR ABLESTAR DEB,1 00210U 61015BE  25193.52912486  .00000351  00000-0  35422-3 0  9991,2 00210  66.4569 123.6190 0045271 179.4218 180.6918 13.88599799218231,12/07/2025 17:51,THOR ABLESTAR DEB,1961-015BE,12/07/2025 12:41,13.88599799,0.0045271,66.4569,123.619,179.4218,180.6918,21823,0.00035422,3.51e-06,0.0,7311.679,103.702,966.645,900.443,DEBRIS,US,29/06/1961,AFETR,,1961,15,13/07/2025 01:23,LEO,0,23390,SMALL
211,0 THOR ABLESTAR DEB,1 00211U 61015BF  02289.93597555  .12731494  63839-5  44358-2 0  9997,2 00211 066.5055 094.2273 0012921 260.4849 099.4747 16.24698619154673,17/08/2004 15:31,THOR ABLESTAR DEB,1961-015BF,16/10/2002 22:27,16.24698619,0.0012921,66.5055,94.2273,260.4849,99.4747,15467,0.0044358,0.12731494,6.38e-06,6584.966,88.631,215.34,198.323,DEBRIS,US,29/06/1961,AFETR,17/10/2002,1961,15,17/10/2002 20:55,LEO,1,15085,SMALL
212,0 THOR ABLESTAR DEB,1 00212U 61015 BG 88223.38923421 -.15822117 +2776000 +99297-2 0  9990,2 00212 068.1769 199.2091 0021307 193.8042 166.4691 16.08547387423006,16/08/2004 23:25,THOR ABLESTAR DEB,1961-015BG,10/08/1988 09:20,16.08547387,0.0021307,68.1769,199.2091,193.8042,166.4691,42300,0.0099297,-0.15822117,0.2776,6628.972,89.521,264.961,236.713,DEBRIS,US,12/03/1961,AFWTR,11/08/1988,1961,15,10/08/1988 18:40,LEO,1,10014,SMALL
213,0 DISCOVERER 36,1 00213U 61034  A 62065.79506968  .01541153 +00000-0 +00000-0 0  9999,2 00213 081.1825 350.0683 0009827 189.6323 170.1457 16.27148165013310,15/08/2004 23:35,DISCOVERER 36,1961-034A,06/03/1962 19:04,16.27148165,0.0009827,81.1825,350.0683,189.6323,170.1457,1331,0.0,0.01541153,0.0,6578.356,88.498,206.685,193.756,PAYLOAD,DEN,08/07/1961,AFWTR,08/03/1962,1961,34,07/03/1962 14:09,LEO,1,243,MEDIUM
214,0 OSCAR 1,1 00214U 61034  B 62029.12065150  .02930741 +00000-0 +00000-0 0  9996,2 00214 081.1405 036.8318 0000000 325.8600 034.1399 16.24799335007501,15/08/2004 23:35,OSCAR 1,1961-034B,29/01/1962 02:53,16.24799335,0.0,81.1405,36.8318,325.86,34.1399,750,0.0,0.02930741,0.0,6584.694,88.626,206.559,206.559,PAYLOAD,US,10/07/1961,AFWTR,31/01/1962,1961,34,29/01/1962 05:47,LEO,1,205,MEDIUM
215,0 DISCOVERER 36 CAPSULE,1 00215U 61034  C 61352.02715520  .03901408 +00000-0 +00000-0 0  9996,2 00215 081.2100 091.2392 0068713 122.1360 238.2037 15.97558537000828,15/08/2004 23:35,DISCOVERER 36 CAPSULE,1961-034C,18/12/1961 00:39,15.97558537,0.0068713,81.21,91.2392,122.136,238.2037,82,0.0,0.03901408,0.0,6659.336,90.137,326.959,235.442,PAYLOAD,DEN,12/07/1961,AFWTR,19/12/1961,1961,34,18/12/1961 01:18,LEO,1,160,MEDIUM
216,0 THOR ABLESTAR DEB,1 00216U 61015 BH 89317.35741781  .28418481 +30854-4 +40292-2 0  9995,2 00216 066.8223 092.7333 0009463 021.1458 340.6320 16.34407703491791,17/08/2004 14:36,THOR ABLESTAR DEB,1961-015BH,13/11/1989 08:34,16.34407703,0.0009463,66.8223,92.7333,21.1458,340.632,49179,0.0040292,0.28418481,3.09e-05,6558.862,88.105,186.934,174.52,DEBRIS,US,14/03/1961,AFWTR,13/11/1989,1961,15,13/11/1989 17:09,LEO,1,10471,SMALL
217,0 SAMOS 5,1 00217U 61035  A 62224.81690329  .02183794 +00000-0 +00000-0 0  9993,2 00217 089.6614 069.6393 0000000 306.0785 209.0990 16.34065792036103,15/08/2004 23:35,SAMOS 5,1961-035A,12/08/1962 19:36,16.34065792,0.0,89.6614,69.6393,306.0785,209.099,3610,0.0,0.02183794,0.0,6559.777,88.123,181.642,181.642,PAYLOAD,CIS,14/07/1961,PKMTR,14/08/1962,1961,35,13/08/1962 15:12,LEO,1,396,MEDIUM
218,0 ATLAS AGENA B R/B,1 00218U 61035  B 61364.23766899  .03510844 +00000-0 +00000-0 0  9991,2 00218 089.6755 079.5992 0015393 351.7618 008.2505 16.30775331001205,15/08/2004 23:35,ATLAS AGENA B R/B,1961-035B,30/12/1961 05:42,16.30775331,0.0015393,89.6755,79.5992,351.7618,8.2505,120,0.0,0.03510844,0.0,6568.598,88.301,200.574,180.352,ROCKET BODY,US,16/07/1961,AFETR,31/12/1961,1961,35,30/12/1961 11:24,LEO,1,168,LARGE
219,0 SAMOS 5 DEB (REFLECTOR),1 00219U 61035  C 62004.20097999  .00001347 +00000-0 +00000-0 0  9999,2 00219 089.6800 079.4270 0053099 326.2440 033.9224 16.37084360002004,15/08/2004 23:35,SAMOS 5 DEB (REFLECTOR),1961-035C,04/01/1962 04:49,16.3708436,0.0053099,89.68,79.427,326.244,33.9224,200,0.0,1.35e-05,0.0,6551.711,87.961,208.365,138.787,DEBRIS,CIS,18/07/1961,PKMTR,09/01/1962,1961,35,04/01/1962 09:38,LEO,1,175,SMALL
220,0 THOR ABLESTAR DEB,1 00220U 61015 BJ 66048.84887524  .02244889 +14507-1 +00000-0 0  9992,2 00220 066.9680 210.4257 0000000 000.0000 359.9999 16.14345436254834,15/08/2004 23:35,THOR ABLESTAR DEB,1961-015BJ,17/02/1966 20:22,16.14345436,0.0,66.968,210.4257,0.0,359.9999,25483,0.0,0.02244889,0.014507,6613.09,89.2,234.955,234.955,DEBRIS,US,16/03/1961,AFWTR,21/02/1966,1961,15,18/02/1966 16:44,LEO,1,1803,SMALL
223,0 THOR ABLESTAR DEB,1 00223U 61015BK  25193.34417786 -.00000016  00000-0  48143-4 0  9992,2 00223  66.8906  65.9031 0071471 212.1629 147.5080 13.88961586243673,12/07/2025 17:51,THOR ABLESTAR DEB,1961-015BK,12/07/2025 08:15,13.88961586,0.0071471,66.8906,65.9031,212.1629,147.508,24367,4.81e-05,-1.6e-07,0.0,7310.409,103.675,984.522,880.026,DEBRIS,US,29/06/1961,AFETR,,1961,15,12/07/2025 16:31,LEO,0,23390,SMALL
224,0 THOR ABLESTAR DEB,1 00224U 61015BL  25193.52034428  .00000669  00000-0  40400-3 0  9991,2 00224  66.7365 293.7552 0072096 270.4394 102.8196 14.11451554264571,12/07/2025 17:51,THOR ABLESTAR DEB,1961-015BL,12/07/2025 12:29,14.11451554,0.0072096,66.7365,293.7552,270.4394,102.8196,26457,0.000404,6.69e-06,0.0,7232.546,102.023,906.555,802.267,DEBRIS,US,29/06/1961,AFETR,,1961,15,13/07/2025 00:58,LEO,0,23390,SMALL
225,0 THOR ABLESTAR DEB,1 00225U 61015BM  25193.36650887  .00000693  00000-0  24885-3 0  9993,2 00225  66.7969  64.3933 0093895 114.7910 246.2997 14.37310883308872,12/07/2025 17:51,THOR ABLESTAR DEB,1961-015BM,12/07/2025 08:47,14.37310883,0.0093895,66.7969,64.3933,114.791,246.2997,30887,0.00024885,6.93e-06,0.0,7145.534,100.187,834.492,700.306,DEBRIS,US,29/06/1961,AFETR,,1961,15,12/07/2025 17:35,LEO,0,23390,SMALL
226,0 TIROS 4,1 00226U 62002A   25193.44377861 -.00000021  00000-0  40451-4 0  9992,2 00226  48.2961 108.4854 0076862 292.1494  67.1261 14.46967255319243,12/07/2025 17:51,TIROS 4,1962-002A,12/07/2025 10:39,14.46967255,0.0076862,48.2961,108.4854,292.1494,67.1261,31924,4.05e-05,-2.1e-07,0.0,7113.708,99.518,790.25,680.896,PAYLOAD,US,08/02/1962,AFETR,,1962,2,12/07/2025 21:18,LEO,0,23166,MEDIUM
227,0 DELTA 1 DEB (YO),1 00227U 62002B   25192.73243527  .00000220  00000-0  11297-3 0  9990,2 00227  48.1472  79.0589 0127655  96.2307 265.3146 14.40383262295219,12/07/2025 04:02,DELTA 1 DEB (YO),1962-002B,11/07/2025 17:34,14.40383262,0.0127655,48.1472,79.0589,96.2307,265.3146,29521,0.00011297,2.2e-06,0.0,7135.369,99.973,848.321,666.148,DEBRIS,US,08/02/1962,AFETR,,1962,2,12/07/2025 11:09,LEO,0,23166,SMALL
228,0 DELTA 1 DEB (YO),1 00228U 62002C   25193.57138016  .00009074  00000-0  29911-3 0  9998,2 00228  48.4338 293.3691 0010581 336.6785  23.3670 15.32016302390714,12/07/2025 17:51,DELTA 1 DEB (YO),1962-002C,12/07/2025 13:42,15.32016302,0.0010581,48.4338,293.3691,336.6785,23.367,39071,0.00029911,9.07e-05,0.0,6847.934,93.994,477.045,462.553,DEBRIS,US,08/02/1962,AFETR,,1962,2,13/07/2025 03:25,LEO,0,23166,SMALL
229,0 DELTA 1 R/B,1 00229U 62002D   02221.97718360  .26773775  11905-4  16052-2 0  9991,2 00229 048.2179 193.9883 0002708 246.8986 113.3149 16.41449899157074,17/08/2004 15:30,DELTA 1 R/B,1962-002D,09/08/2002 23:27,16.41449899,0.0002708,48.2179,193.9883,246.8986,113.3149,15707,0.0016052,0.26773775,1.19e-05,6540.089,87.727,163.725,160.183,ROCKET BODY,US,08/02/1962,AFETR,10/08/2002,1962,2,10/08/2002 22:54,LEO,1,14793,LARGE
230,0 THOR ABLESTAR DEB,1 00230U 61015BN  25193.35116159  .00000018  00000-0  66452-4 0  9995,2 00230  66.8821 164.3304 0087351  55.6318 305.2988 13.96697888258297,12/07/2025 17:51,THOR ABLESTAR DEB,1961-015BN,12/07/2025 08:25,13.96697888,0.0087351,66.8821,164.3304,55.6318,305.2988,25829,6.65e-05,1.8e-07,0.0,7283.389,103.1,968.875,841.633,DEBRIS,US,29/06/1961,AFETR,,1961,15,12/07/2025 16:51,LEO,0,23390,SMALL
231,0 THOR ABLESTAR DEB,1 00231U 61015 BP 65043.85390658  .05559087 +97256-1 +00000-0 0  9990,2 00231 066.8428 157.5022 0014242 321.5161 038.3829 16.19328230200028,15/08/2004 23:35,THOR ABLESTAR DEB,1961-015BP,12/02/1965 20:29,16.1932823,0.0014242,66.8428,157.5022,321.5161,38.3829,20002,0.0,0.05559087,0.097256,6599.517,88.925,230.781,211.983,DEBRIS,US,18/03/1961,AFWTR,13/02/1965,1961,15,13/02/1965 16:59,LEO,1,1428,SMALL
